{"type":"FeatureCollection","metadata":{"title":"שדות תעופה, מנחתים ומשטחי מסוקים — פמ\"ת פרקים ד', ה' ו-ו'","source_pdf":"https://github.com/nadaval56/airspace/releases/download/aip-source/pamat.pdf","extracted_at":"2026-08-18T02:51:33Z","counts":{"airport":3,"airstrip":10,"helipad":13,"agricultural":10},"geometry_note":"נקודה אחת לכל שדה — נקודת הציון המרכזית (ARP) שבפרק. אזור השדה (ATZ) מתואר בפמ\"ת במילים ולא בקואורדינטות, ולכן אינו מצויר; רדיוס שכתוב במפורש נשמר בשדה atz_radius_nm.","warnings":["מצדה: הגובה במלל מפורק לשני רצפי ספרות ואין תרשים להכריע — לא פורסם גובה.","קציעות: גובה במלל 99 רגל מול 900 בתרשים — נלקח זה שבתרשים.","הדסה עין כרם — מנחת מוגבה על גג בניין: הוחל תיקון מיקום מתועד (31°45'08\"N 035°08'57\"E → 31°45'58.8\"N 035°08'57.9\"E).","תפן (ישקר): הגובה במלל מפורק לשני רצפי ספרות ואין תרשים להכריע — לא פורסם גובה."]},"features":[{"type":"Feature","properties":{"id":"LLAA","name":"אסותא-אשדוד","kind":"helipad","kind_label":"משטחי מסוקים","source":"פמ\"ת, פרק ו' — משטחי נחיתה למסוקים","title":"מנחת מסוקים אסותא אשדוד","icao":"LLAA","elevation_ft":102},"geometry":{"type":"Point","coordinates":[34.655,31.77861]}},{"type":"Feature","properties":{"id":"LLBL","name":"בלינסון","kind":"helipad","kind_label":"משטחי מסוקים","source":"פמ\"ת, פרק ו' — משטחי נחיתה למסוקים","title":"מנחת מסוקים בלינסון","icao":"LLBL","elevation_ft":114},"geometry":{"type":"Point","coordinates":[34.865,32.08694]}},{"type":"Feature","properties":{"id":"LLBO","name":"הבונים","kind":"airstrip","kind_label":"מנחתים","source":"פמ\"ת, פרק ה' — מנחתים","title":"מנחת הבונים","icao":"LLBO","elevation_ft":17,"atz_radius_nm":1.62},"geometry":{"type":"Point","coordinates":[34.93389,32.65417]}},{"type":"Feature","properties":{"id":"LLBS","name":"באר שבע","kind":"airstrip","kind_label":"מנחתים","source":"פמ\"ת, פרק ה' — מנחתים","title":"מנחת באר-שבע","icao":"LLBS","elevation_ft":656},"geometry":{"type":"Point","coordinates":[34.72278,31.28694]}},{"type":"Feature","properties":{"id":"LLES","name":"עין שמר","kind":"airstrip","kind_label":"מנחתים","source":"פמ\"ת, פרק ה' — מנחתים","title":"מנחת עין שמר","icao":"LLES","elevation_ft":95},"geometry":{"type":"Point","coordinates":[35.00333,32.44139]}},{"type":"Feature","properties":{"id":"LLEY","name":"עין יהב","kind":"airstrip","kind_label":"מנחתים","source":"פמ\"ת, פרק ה' — מנחתים","title":"מנחת עין יהב","icao":"LLEY","elevation_ft":-177,"atz_radius_nm":1.62},"geometry":{"type":"Point","coordinates":[35.20306,30.62167]}},{"type":"Feature","properties":{"id":"LLFK","name":"פיק","kind":"airstrip","kind_label":"מנחתים","source":"פמ\"ת, פרק ה' — מנחתים","title":"מנחת פיק","icao":"LLFK","elevation_ft":1218,"atz_radius_nm":1.62},"geometry":{"type":"Point","coordinates":[35.71722,32.78528]}},{"type":"Feature","properties":{"id":"LLHA","name":"חיפה","kind":"airport","kind_label":"שדות תעופה","source":"פמ\"ת, פרק ד' — שדות תעופה","title":"נמל התעופה חיפה","icao":"LLHA","elevation_ft":28},"geometry":{"type":"Point","coordinates":[35.04389,32.80972]}},{"type":"Feature","properties":{"id":"LLHD-מנחת-מוגבה-על-גג-בניין","name":"הדסה עין כרם — מנחת מוגבה על גג בניין","kind":"helipad","kind_label":"משטחי מסוקים","source":"פמ\"ת, פרק ו' — משטחי נחיתה למסוקים","title":"מנחת מסוקים הדסה עין כרם","icao":"LLHD","elevation_ft":2379,"note":"מיקום מתוקן. הפמ\"ת נותן 31°45'08\"N 035°08'57\"E, ושם אין משטח נחיתה — זה נופל כקילומטר וחצי דרומה. המשטח נמצא ב-31°45'58.8\"N 035°08'57.9\"E (צילום אוויר — עיגול הנחיתה מסומן על גג בית החולים), וההפרש הוא ספרה אחת בשניות קו הרוחב. המקור הוא הקובע; הנקודה מסומנת במקום שבו המשטח באמת נמצא."},"geometry":{"type":"Point","coordinates":[35.14941,31.76634]}},{"type":"Feature","properties":{"id":"LLHD-מנחת-קרקעי","name":"הדסה עין כרם — מנחת קרקעי","kind":"helipad","kind_label":"משטחי מסוקים","source":"פמ\"ת, פרק ו' — משטחי נחיתה למסוקים","title":"מנחת מסוקים הדסה עין כרם","icao":"LLHD","elevation_ft":2088},"geometry":{"type":"Point","coordinates":[35.14722,31.76444]}},{"type":"Feature","properties":{"id":"LLHY","name":"הלל יפה","kind":"helipad","kind_label":"משטחי מסוקים","source":"פמ\"ת, פרק ו' — משטחי נחיתה למסוקים","title":"מנחת מסוקים הלל יפה","icao":"LLHY","elevation_ft":45},"geometry":{"type":"Point","coordinates":[34.895,32.45306]}},{"type":"Feature","properties":{"id":"LLHZ","name":"הרצליה","kind":"airport","kind_label":"שדות תעופה","source":"פמ\"ת, פרק ד' — שדות תעופה","title":"שדה התעופה הרצליה ע\"ש מודי אלון","icao":"LLHZ","elevation_ft":121,"atz_radius_nm":1.62},"geometry":{"type":"Point","coordinates":[34.83444,32.17944]}},{"type":"Feature","properties":{"id":"LLIB","name":"ראש פינה","kind":"airport","kind_label":"שדות תעופה","source":"פמ\"ת, פרק ד' — שדות תעופה","title":"שדה התעופה ראש פינה","icao":"LLIB","elevation_ft":884},"geometry":{"type":"Point","coordinates":[35.57194,32.98083]}},{"type":"Feature","properties":{"id":"LLIC","name":"איכילוב","kind":"helipad","kind_label":"משטחי מסוקים","source":"פמ\"ת, פרק ו' — משטחי נחיתה למסוקים","title":"מנחת מסוקים איכילוב","icao":"LLIC","elevation_ft":285},"geometry":{"type":"Point","coordinates":[34.78972,32.08]}},{"type":"Feature","properties":{"id":"LLIS","name":"תפן (ישקר)","kind":"helipad","kind_label":"משטחי מסוקים","source":"פמ\"ת, פרק ו' — משטחי נחיתה למסוקים","title":"מנחת מסוקים תפן (ישקר)","icao":"LLIS"},"geometry":{"type":"Point","coordinates":[35.26556,32.97917]}},{"type":"Feature","properties":{"id":"LLKS","name":"קרית שמונה","kind":"airstrip","kind_label":"מנחתים","source":"פמ\"ת, פרק ה' — מנחתים","title":"מנחת קרית שמונה","icao":"LLKS","elevation_ft":376,"atz_radius_nm":1.62},"geometry":{"type":"Point","coordinates":[35.59417,33.21417]}},{"type":"Feature","properties":{"id":"LLKZ","name":"קציעות","kind":"airstrip","kind_label":"מנחתים","source":"פמ\"ת, פרק ה' — מנחתים","title":"מנחת קציעות","icao":"LLKZ","elevation_ft":900},"geometry":{"type":"Point","coordinates":[34.44333,30.85917]}},{"type":"Feature","properties":{"id":"LLMG","name":"מגידו","kind":"airstrip","kind_label":"מנחתים","source":"פמ\"ת, פרק ה' — מנחתים","title":"מנחת מגידו - מנחמי","icao":"LLMG","elevation_ft":200},"geometry":{"type":"Point","coordinates":[35.23472,32.59722]}},{"type":"Feature","properties":{"id":"LLMZ","name":"מצדה","kind":"airstrip","kind_label":"מנחתים","source":"פמ\"ת, פרק ה' — מנחתים","title":"מנחת מצדה","icao":"LLMZ","atz_radius_nm":1.62},"geometry":{"type":"Point","coordinates":[35.38833,31.32917]}},{"type":"Feature","properties":{"id":"LLPO","name":"פוריה","kind":"helipad","kind_label":"משטחי מסוקים","source":"פמ\"ת, פרק ו' — משטחי נחיתה למסוקים","title":"מנחת מסוקים פוריה","icao":"LLPO","elevation_ft":731},"geometry":{"type":"Point","coordinates":[35.5425,32.75417]}},{"type":"Feature","properties":{"id":"LLRB","name":"רמב\"ם","kind":"helipad","kind_label":"משטחי מסוקים","source":"פמ\"ת, פרק ו' — משטחי נחיתה למסוקים","title":"מנחת מסוקים רמב\"ם","icao":"LLRB","elevation_ft":10},"geometry":{"type":"Point","coordinates":[34.98583,32.83528]}},{"type":"Feature","properties":{"id":"LLRS-מנחת-מז-מ","name":"ראשון לציון — מנחת מז\"מ","kind":"airstrip","kind_label":"מנחתים","source":"פמ\"ת, פרק ה' — מנחתים","title":"מנחת ראשון לציון","icao":"LLRS","elevation_ft":60},"geometry":{"type":"Point","coordinates":[34.75361,31.9675]}},{"type":"Feature","properties":{"id":"LLRS-משטח-הנחיתה-מסוקים","name":"ראשון לציון — משטח הנחיתה - מסוקים","kind":"helipad","kind_label":"משטחי מסוקים","source":"פמ\"ת, פרק ו' — משטחי נחיתה למסוקים","title":"מנחת ראשון לציון","icao":"LLRS","elevation_ft":60},"geometry":{"type":"Point","coordinates":[34.7522,31.96728]}},{"type":"Feature","properties":{"id":"LLSM","name":"תל השומר","kind":"helipad","kind_label":"משטחי מסוקים","source":"פמ\"ת, פרק ו' — משטחי נחיתה למסוקים","title":"מנחת תל השומר","icao":"LLSM","elevation_ft":154},"geometry":{"type":"Point","coordinates":[34.84194,32.04333]}},{"type":"Feature","properties":{"id":"LLSR","name":"סורוקה","kind":"helipad","kind_label":"משטחי מסוקים","source":"פמ\"ת, פרק ו' — משטחי נחיתה למסוקים","title":"מנחת מסוקים סורוקה","icao":"LLSR","elevation_ft":951},"geometry":{"type":"Point","coordinates":[34.79944,31.25917]}},{"type":"Feature","properties":{"id":"LLYS","name":"יוספטל","kind":"helipad","kind_label":"משטחי מסוקים","source":"פמ\"ת, פרק ו' — משטחי נחיתה למסוקים","title":"מנחת מסוקים יוספטל באילת","icao":"LLYS","elevation_ft":280},"geometry":{"type":"Point","coordinates":[34.94139,29.55361]}},{"type":"Feature","properties":{"id":"אליעז-חפציבה","name":"אליעז (חפציבה)","kind":"agricultural","kind_label":"מנחתים חקלאיים","source":"פמ\"ת, פרק ה' — מנחתים נוספים","operator":"חברת כים- ניר אחזקות","contact":"ops@chimnir.co.il"},"geometry":{"type":"Point","coordinates":[35.43833,32.53556]}},{"type":"Feature","properties":{"id":"גבולות-אשכול","name":"גבולות (אשכול)","kind":"agricultural","kind_label":"מנחתים חקלאיים","source":"פמ\"ת, פרק ה' — מנחתים נוספים","operator":"חברת כים- ניר אחזקות","contact":"ops@chimnir.co.il"},"geometry":{"type":"Point","coordinates":[34.46028,31.2275]}},{"type":"Feature","properties":{"id":"טל-שחר","name":"טל שחר","kind":"agricultural","kind_label":"מנחתים חקלאיים","source":"פמ\"ת, פרק ה' — מנחתים נוספים","operator":"חברת כים- ניר אחזקות","contact":"ops@chimnir.co.il"},"geometry":{"type":"Point","coordinates":[34.89972,31.79]}},{"type":"Feature","properties":{"id":"לב-הנגב-אורים","name":"לב הנגב (אורים)","kind":"agricultural","kind_label":"מנחתים חקלאיים","source":"פמ\"ת, פרק ה' — מנחתים נוספים","operator":"חברת תלם תעופה","contact":"etzionia@gmail.com"},"geometry":{"type":"Point","coordinates":[34.5375,31.26778]}},{"type":"Feature","properties":{"id":"נען","name":"נען","kind":"agricultural","kind_label":"מנחתים חקלאיים","source":"פמ\"ת, פרק ה' — מנחתים נוספים","operator":"חברת כים- ניר אחזקות","contact":"ops@chimnir.co.il"},"geometry":{"type":"Point","coordinates":[34.88611,31.88472]}},{"type":"Feature","properties":{"id":"סן-גין-שומרת","name":"סן-ג'ין (שומרת)","kind":"agricultural","kind_label":"מנחתים חקלאיים","source":"פמ\"ת, פרק ה' — מנחתים נוספים","operator":"חברת תלם תעופה","contact":"etzionia@gmail.com"},"geometry":{"type":"Point","coordinates":[35.10417,32.94444]}},{"type":"Feature","properties":{"id":"סעד","name":"סעד","kind":"agricultural","kind_label":"מנחתים חקלאיים","source":"פמ\"ת, פרק ה' — מנחתים נוספים","operator":"חברת כים- ניר אחזקות","contact":"ops@chimnir.co.il"},"geometry":{"type":"Point","coordinates":[34.55917,31.47139]}},{"type":"Feature","properties":{"id":"קדמה","name":"קדמה","kind":"agricultural","kind_label":"מנחתים חקלאיים","source":"פמ\"ת, פרק ה' — מנחתים נוספים","operator":"סנונית בע\"מ","contact":"tomer.dahari@elbitsystems.com"},"geometry":{"type":"Point","coordinates":[34.76944,31.69778]}},{"type":"Feature","properties":{"id":"רוחמה","name":"רוחמה","kind":"agricultural","kind_label":"מנחתים חקלאיים","source":"פמ\"ת, פרק ה' — מנחתים נוספים","operator":"חברת כים- ניר אחזקות","contact":"ops@chimnir.co.il"},"geometry":{"type":"Point","coordinates":[34.71944,31.46167]}},{"type":"Feature","properties":{"id":"רשות-החולה","name":"רשות החולה","kind":"agricultural","kind_label":"מנחתים חקלאיים","source":"פמ\"ת, פרק ה' — מנחתים נוספים","operator":"חברת כים- ניר אחזקות / חברת תלם תעופה"},"geometry":{"type":"Point","coordinates":[35.58111,33.11444]}}]}
