{
 "type": "FeatureCollection",
 "generated_at": "2026-08-17T04:07:55Z",
 "source": "פמ\"ת א-17, נספח ד'",
 "features": [
  {
   "type": "Feature",
   "geometry": {
    "type": "Polygon",
    "coordinates": [
     [
      [
       34.3625,
       30.986222
      ],
      [
       34.36387,
       30.986145
      ],
      [
       34.365217,
       30.985915
      ],
      [
       34.366517,
       30.985537
      ],
      [
       34.367749,
       30.985016
      ],
      [
       34.36889,
       30.984362
      ],
      [
       34.369923,
       30.983586
      ],
      [
       34.370828,
       30.982701
      ],
      [
       34.371591,
       30.981722
      ],
      [
       34.372198,
       30.980666
      ],
      [
       34.37264,
       30.979551
      ],
      [
       34.372907,
       30.978397
      ],
      [
       34.372997,
       30.977222
      ],
      [
       34.372907,
       30.976047
      ],
      [
       34.37264,
       30.974893
      ],
      [
       34.372198,
       30.973778
      ],
      [
       34.371591,
       30.972722
      ],
      [
       34.370828,
       30.971743
      ],
      [
       34.369923,
       30.970858
      ],
      [
       34.36889,
       30.970082
      ],
      [
       34.367749,
       30.969428
      ],
      [
       34.366517,
       30.968907
      ],
      [
       34.365217,
       30.968529
      ],
      [
       34.36387,
       30.968299
      ],
      [
       34.3625,
       30.968222
      ],
      [
       34.36113,
       30.968299
      ],
      [
       34.359783,
       30.968529
      ],
      [
       34.358483,
       30.968907
      ],
      [
       34.357251,
       30.969428
      ],
      [
       34.35611,
       30.970082
      ],
      [
       34.355077,
       30.970858
      ],
      [
       34.354172,
       30.971743
      ],
      [
       34.353409,
       30.972722
      ],
      [
       34.352802,
       30.973778
      ],
      [
       34.35236,
       30.974893
      ],
      [
       34.352093,
       30.976047
      ],
      [
       34.352003,
       30.977222
      ],
      [
       34.352093,
       30.978397
      ],
      [
       34.35236,
       30.979551
      ],
      [
       34.352802,
       30.980666
      ],
      [
       34.353409,
       30.981722
      ],
      [
       34.354172,
       30.982701
      ],
      [
       34.355077,
       30.983586
      ],
      [
       34.35611,
       30.984362
      ],
      [
       34.357251,
       30.985016
      ],
      [
       34.358483,
       30.985537
      ],
      [
       34.359783,
       30.985915
      ],
      [
       34.36113,
       30.986145
      ],
      [
       34.3625,
       30.986222
      ]
     ]
    ]
   },
   "properties": {
    "id": "LLP3000",
    "name": "בלון מעוגן מוצב מפגש",
    "type": "מכשול קבוע",
    "lower_limit": "GND",
    "upper_limit": "2800",
    "radius_nm": 0.54,
    "source": "פמ\"ת א-17, נספח ד'"
   }
  },
  {
   "type": "Feature",
   "geometry": {
    "type": "Polygon",
    "coordinates": [
     [
      [
       35.133333,
       32.020667
      ],
      [
       35.134718,
       32.02059
      ],
      [
       35.13608,
       32.02036
      ],
      [
       35.137395,
       32.019982
      ],
      [
       35.13864,
       32.019461
      ],
      [
       35.139794,
       32.018807
      ],
      [
       35.140838,
       32.018031
      ],
      [
       35.141754,
       32.017146
      ],
      [
       35.142525,
       32.016167
      ],
      [
       35.143139,
       32.015111
      ],
      [
       35.143585,
       32.013996
      ],
      [
       35.143856,
       32.012842
      ],
      [
       35.143947,
       32.011667
      ],
      [
       35.143856,
       32.010492
      ],
      [
       35.143585,
       32.009338
      ],
      [
       35.143139,
       32.008223
      ],
      [
       35.142525,
       32.007167
      ],
      [
       35.141754,
       32.006188
      ],
      [
       35.140838,
       32.005303
      ],
      [
       35.139794,
       32.004527
      ],
      [
       35.13864,
       32.003873
      ],
      [
       35.137395,
       32.003352
      ],
      [
       35.13608,
       32.002974
      ],
      [
       35.134718,
       32.002744
      ],
      [
       35.133333,
       32.002667
      ],
      [
       35.131948,
       32.002744
      ],
      [
       35.130586,
       32.002974
      ],
      [
       35.129271,
       32.003352
      ],
      [
       35.128026,
       32.003873
      ],
      [
       35.126872,
       32.004527
      ],
      [
       35.125828,
       32.005303
      ],
      [
       35.124912,
       32.006188
      ],
      [
       35.124141,
       32.007167
      ],
      [
       35.123527,
       32.008223
      ],
      [
       35.123081,
       32.009338
      ],
      [
       35.12281,
       32.010492
      ],
      [
       35.122719,
       32.011667
      ],
      [
       35.12281,
       32.012842
      ],
      [
       35.123081,
       32.013996
      ],
      [
       35.123527,
       32.015111
      ],
      [
       35.124141,
       32.016167
      ],
      [
       35.124912,
       32.017146
      ],
      [
       35.125828,
       32.018031
      ],
      [
       35.126872,
       32.018807
      ],
      [
       35.128026,
       32.019461
      ],
      [
       35.129271,
       32.019982
      ],
      [
       35.130586,
       32.02036
      ],
      [
       35.131948,
       32.02059
      ],
      [
       35.133333,
       32.020667
      ]
     ]
    ]
   },
   "properties": {
    "id": "LLP3001",
    "name": "בלון מעוגן חלמיש",
    "type": "מכשול קבוע",
    "lower_limit": "GND",
    "upper_limit": "3400",
    "radius_nm": 0.54,
    "source": "פמ\"ת א-17, נספח ד'"
   }
  },
  {
   "type": "Feature",
   "geometry": {
    "type": "Polygon",
    "coordinates": [
     [
      [
       34.546389,
       31.567889
      ],
      [
       34.547768,
       31.567812
      ],
      [
       34.549123,
       31.567582
      ],
      [
       34.550431,
       31.567204
      ],
      [
       34.55167,
       31.566683
      ],
      [
       34.552819,
       31.566029
      ],
      [
       34.553858,
       31.565253
      ],
      [
       34.554768,
       31.564368
      ],
      [
       34.555536,
       31.563389
      ],
      [
       34.556147,
       31.562333
      ],
      [
       34.556591,
       31.561218
      ],
      [
       34.556861,
       31.560064
      ],
      [
       34.556951,
       31.558889
      ],
      [
       34.556861,
       31.557714
      ],
      [
       34.556591,
       31.55656
      ],
      [
       34.556147,
       31.555445
      ],
      [
       34.555536,
       31.554389
      ],
      [
       34.554768,
       31.55341
      ],
      [
       34.553858,
       31.552525
      ],
      [
       34.552819,
       31.551749
      ],
      [
       34.55167,
       31.551095
      ],
      [
       34.550431,
       31.550574
      ],
      [
       34.549123,
       31.550196
      ],
      [
       34.547768,
       31.549966
      ],
      [
       34.546389,
       31.549889
      ],
      [
       34.54501,
       31.549966
      ],
      [
       34.543655,
       31.550196
      ],
      [
       34.542347,
       31.550574
      ],
      [
       34.541108,
       31.551095
      ],
      [
       34.539959,
       31.551749
      ],
      [
       34.53892,
       31.552525
      ],
      [
       34.53801,
       31.55341
      ],
      [
       34.537242,
       31.554389
      ],
      [
       34.536631,
       31.555445
      ],
      [
       34.536187,
       31.55656
      ],
      [
       34.535917,
       31.557714
      ],
      [
       34.535827,
       31.558889
      ],
      [
       34.535917,
       31.560064
      ],
      [
       34.536187,
       31.561218
      ],
      [
       34.536631,
       31.562333
      ],
      [
       34.537242,
       31.563389
      ],
      [
       34.53801,
       31.564368
      ],
      [
       34.53892,
       31.565253
      ],
      [
       34.539959,
       31.566029
      ],
      [
       34.541108,
       31.566683
      ],
      [
       34.542347,
       31.567204
      ],
      [
       34.543655,
       31.567582
      ],
      [
       34.54501,
       31.567812
      ],
      [
       34.546389,
       31.567889
      ]
     ]
    ]
   },
   "properties": {
    "id": "LLP3002",
    "name": "בלון מעוגן רצועת עזה",
    "type": "מכשול קבוע",
    "lower_limit": "GND",
    "upper_limit": "2700",
    "radius_nm": 0.54,
    "source": "פמ\"ת א-17, נספח ד'"
   }
  },
  {
   "type": "Feature",
   "geometry": {
    "type": "Polygon",
    "coordinates": [
     [
      [
       34.470833,
       31.459556
      ],
      [
       34.47221,
       31.459479
      ],
      [
       34.473564,
       31.459249
      ],
      [
       34.47487,
       31.458871
      ],
      [
       34.476108,
       31.45835
      ],
      [
       34.477255,
       31.457696
      ],
      [
       34.478293,
       31.45692
      ],
      [
       34.479203,
       31.456035
      ],
      [
       34.479969,
       31.455056
      ],
      [
       34.48058,
       31.454
      ],
      [
       34.481023,
       31.452885
      ],
      [
       34.481293,
       31.451731
      ],
      [
       34.481383,
       31.450556
      ],
      [
       34.481293,
       31.449381
      ],
      [
       34.481023,
       31.448227
      ],
      [
       34.48058,
       31.447112
      ],
      [
       34.479969,
       31.446056
      ],
      [
       34.479203,
       31.445077
      ],
      [
       34.478293,
       31.444192
      ],
      [
       34.477255,
       31.443416
      ],
      [
       34.476108,
       31.442762
      ],
      [
       34.47487,
       31.442241
      ],
      [
       34.473564,
       31.441863
      ],
      [
       34.47221,
       31.441633
      ],
      [
       34.470833,
       31.441556
      ],
      [
       34.469456,
       31.441633
      ],
      [
       34.468102,
       31.441863
      ],
      [
       34.466796,
       31.442241
      ],
      [
       34.465558,
       31.442762
      ],
      [
       34.464411,
       31.443416
      ],
      [
       34.463373,
       31.444192
      ],
      [
       34.462463,
       31.445077
      ],
      [
       34.461697,
       31.446056
      ],
      [
       34.461086,
       31.447112
      ],
      [
       34.460643,
       31.448227
      ],
      [
       34.460373,
       31.449381
      ],
      [
       34.460283,
       31.450556
      ],
      [
       34.460373,
       31.451731
      ],
      [
       34.460643,
       31.452885
      ],
      [
       34.461086,
       31.454
      ],
      [
       34.461697,
       31.455056
      ],
      [
       34.462463,
       31.456035
      ],
      [
       34.463373,
       31.45692
      ],
      [
       34.464411,
       31.457696
      ],
      [
       34.465558,
       31.45835
      ],
      [
       34.466796,
       31.458871
      ],
      [
       34.468102,
       31.459249
      ],
      [
       34.469456,
       31.459479
      ],
      [
       34.470833,
       31.459556
      ]
     ]
    ]
   },
   "properties": {
    "id": "LLP3003",
    "name": "בלון מעוגן רצועת עזה",
    "type": "מכשול קבוע",
    "lower_limit": "GND",
    "upper_limit": "2400",
    "radius_nm": 0.54,
    "source": "פמ\"ת א-17, נספח ד'"
   }
  },
  {
   "type": "Feature",
   "geometry": {
    "type": "Polygon",
    "coordinates": [
     [
      [
       34.281389,
       31.217333
      ],
      [
       34.282762,
       31.217256
      ],
      [
       34.284112,
       31.217026
      ],
      [
       34.285416,
       31.216648
      ],
      [
       34.28665,
       31.216127
      ],
      [
       34.287795,
       31.215473
      ],
      [
       34.28883,
       31.214697
      ],
      [
       34.289737,
       31.213812
      ],
      [
       34.290502,
       31.212833
      ],
      [
       34.291111,
       31.211777
      ],
      [
       34.291553,
       31.210662
      ],
      [
       34.291822,
       31.209508
      ],
      [
       34.291912,
       31.208333
      ],
      [
       34.291822,
       31.207158
      ],
      [
       34.291553,
       31.206004
      ],
      [
       34.291111,
       31.204889
      ],
      [
       34.290502,
       31.203833
      ],
      [
       34.289737,
       31.202854
      ],
      [
       34.28883,
       31.201969
      ],
      [
       34.287795,
       31.201193
      ],
      [
       34.28665,
       31.200539
      ],
      [
       34.285416,
       31.200018
      ],
      [
       34.284112,
       31.19964
      ],
      [
       34.282762,
       31.19941
      ],
      [
       34.281389,
       31.199333
      ],
      [
       34.280016,
       31.19941
      ],
      [
       34.278666,
       31.19964
      ],
      [
       34.277362,
       31.200018
      ],
      [
       34.276128,
       31.200539
      ],
      [
       34.274983,
       31.201193
      ],
      [
       34.273948,
       31.201969
      ],
      [
       34.273041,
       31.202854
      ],
      [
       34.272276,
       31.203833
      ],
      [
       34.271667,
       31.204889
      ],
      [
       34.271225,
       31.206004
      ],
      [
       34.270956,
       31.207158
      ],
      [
       34.270866,
       31.208333
      ],
      [
       34.270956,
       31.209508
      ],
      [
       34.271225,
       31.210662
      ],
      [
       34.271667,
       31.211777
      ],
      [
       34.272276,
       31.212833
      ],
      [
       34.273041,
       31.213812
      ],
      [
       34.273948,
       31.214697
      ],
      [
       34.274983,
       31.215473
      ],
      [
       34.276128,
       31.216127
      ],
      [
       34.277362,
       31.216648
      ],
      [
       34.278666,
       31.217026
      ],
      [
       34.280016,
       31.217256
      ],
      [
       34.281389,
       31.217333
      ]
     ]
    ]
   },
   "properties": {
    "id": "LLP3004",
    "name": "בלון מעוגן רצועת עזה",
    "type": "מכשול קבוע",
    "lower_limit": "GND",
    "upper_limit": "2800",
    "radius_nm": 0.54,
    "source": "פמ\"ת א-17, נספח ד'"
   }
  },
  {
   "type": "Feature",
   "geometry": {
    "type": "Polygon",
    "coordinates": [
     [
      [
       34.335833,
       31.249556
      ],
      [
       34.337207,
       31.249479
      ],
      [
       34.338557,
       31.249249
      ],
      [
       34.339861,
       31.248871
      ],
      [
       34.341096,
       31.24835
      ],
      [
       34.342241,
       31.247696
      ],
      [
       34.343276,
       31.24692
      ],
      [
       34.344184,
       31.246035
      ],
      [
       34.344949,
       31.245056
      ],
      [
       34.345558,
       31.244
      ],
      [
       34.346001,
       31.242885
      ],
      [
       34.346269,
       31.241731
      ],
      [
       34.346359,
       31.240556
      ],
      [
       34.346269,
       31.239381
      ],
      [
       34.346001,
       31.238227
      ],
      [
       34.345558,
       31.237112
      ],
      [
       34.344949,
       31.236056
      ],
      [
       34.344184,
       31.235077
      ],
      [
       34.343276,
       31.234192
      ],
      [
       34.342241,
       31.233416
      ],
      [
       34.341096,
       31.232762
      ],
      [
       34.339861,
       31.232241
      ],
      [
       34.338557,
       31.231863
      ],
      [
       34.337207,
       31.231633
      ],
      [
       34.335833,
       31.231556
      ],
      [
       34.334459,
       31.231633
      ],
      [
       34.333109,
       31.231863
      ],
      [
       34.331805,
       31.232241
      ],
      [
       34.33057,
       31.232762
      ],
      [
       34.329425,
       31.233416
      ],
      [
       34.32839,
       31.234192
      ],
      [
       34.327482,
       31.235077
      ],
      [
       34.326717,
       31.236056
      ],
      [
       34.326108,
       31.237112
      ],
      [
       34.325665,
       31.238227
      ],
      [
       34.325397,
       31.239381
      ],
      [
       34.325307,
       31.240556
      ],
      [
       34.325397,
       31.241731
      ],
      [
       34.325665,
       31.242885
      ],
      [
       34.326108,
       31.244
      ],
      [
       34.326717,
       31.245056
      ],
      [
       34.327482,
       31.246035
      ],
      [
       34.32839,
       31.24692
      ],
      [
       34.329425,
       31.247696
      ],
      [
       34.33057,
       31.24835
      ],
      [
       34.331805,
       31.248871
      ],
      [
       34.333109,
       31.249249
      ],
      [
       34.334459,
       31.249479
      ],
      [
       34.335833,
       31.249556
      ]
     ]
    ]
   },
   "properties": {
    "id": "LLP3005",
    "name": "בלון מעוגן רצועת עזה",
    "type": "מכשול קבוע",
    "lower_limit": "GND",
    "upper_limit": "2800",
    "radius_nm": 0.54,
    "source": "פמ\"ת א-17, נספח ד'"
   }
  },
  {
   "type": "Feature",
   "geometry": {
    "type": "Polygon",
    "coordinates": [
     [
      [
       34.502778,
       31.487889
      ],
      [
       34.504155,
       31.487812
      ],
      [
       34.505509,
       31.487582
      ],
      [
       34.506816,
       31.487204
      ],
      [
       34.508055,
       31.486683
      ],
      [
       34.509202,
       31.486029
      ],
      [
       34.51024,
       31.485253
      ],
      [
       34.51115,
       31.484368
      ],
      [
       34.511917,
       31.483389
      ],
      [
       34.512528,
       31.482333
      ],
      [
       34.512971,
       31.481218
      ],
      [
       34.513241,
       31.480064
      ],
      [
       34.513331,
       31.478889
      ],
      [
       34.513241,
       31.477714
      ],
      [
       34.512971,
       31.47656
      ],
      [
       34.512528,
       31.475445
      ],
      [
       34.511917,
       31.474389
      ],
      [
       34.51115,
       31.47341
      ],
      [
       34.51024,
       31.472525
      ],
      [
       34.509202,
       31.471749
      ],
      [
       34.508055,
       31.471095
      ],
      [
       34.506816,
       31.470574
      ],
      [
       34.505509,
       31.470196
      ],
      [
       34.504155,
       31.469966
      ],
      [
       34.502778,
       31.469889
      ],
      [
       34.501401,
       31.469966
      ],
      [
       34.500047,
       31.470196
      ],
      [
       34.49874,
       31.470574
      ],
      [
       34.497501,
       31.471095
      ],
      [
       34.496354,
       31.471749
      ],
      [
       34.495316,
       31.472525
      ],
      [
       34.494406,
       31.47341
      ],
      [
       34.493639,
       31.474389
      ],
      [
       34.493028,
       31.475445
      ],
      [
       34.492585,
       31.47656
      ],
      [
       34.492315,
       31.477714
      ],
      [
       34.492225,
       31.478889
      ],
      [
       34.492315,
       31.480064
      ],
      [
       34.492585,
       31.481218
      ],
      [
       34.493028,
       31.482333
      ],
      [
       34.493639,
       31.483389
      ],
      [
       34.494406,
       31.484368
      ],
      [
       34.495316,
       31.485253
      ],
      [
       34.496354,
       31.486029
      ],
      [
       34.497501,
       31.486683
      ],
      [
       34.49874,
       31.487204
      ],
      [
       34.500047,
       31.487582
      ],
      [
       34.501401,
       31.487812
      ],
      [
       34.502778,
       31.487889
      ]
     ]
    ]
   },
   "properties": {
    "id": "LLP3006",
    "name": "בלון מעוגן רצועת עזה",
    "type": "מכשול קבוע",
    "lower_limit": "GND",
    "upper_limit": "2400",
    "radius_nm": 0.54,
    "source": "פמ\"ת א-17, נספח ד'"
   }
  },
  {
   "type": "Feature",
   "geometry": {
    "type": "Polygon",
    "coordinates": [
     [
      [
       34.391389,
       31.376222
      ],
      [
       34.392765,
       31.376145
      ],
      [
       34.394117,
       31.375915
      ],
      [
       34.395423,
       31.375537
      ],
      [
       34.396659,
       31.375016
      ],
      [
       34.397806,
       31.374362
      ],
      [
       34.398842,
       31.373586
      ],
      [
       34.399751,
       31.372701
      ],
      [
       34.400517,
       31.371722
      ],
      [
       34.401127,
       31.370666
      ],
      [
       34.40157,
       31.369551
      ],
      [
       34.401839,
       31.368397
      ],
      [
       34.40193,
       31.367222
      ],
      [
       34.401839,
       31.366047
      ],
      [
       34.40157,
       31.364893
      ],
      [
       34.401127,
       31.363778
      ],
      [
       34.400517,
       31.362722
      ],
      [
       34.399751,
       31.361743
      ],
      [
       34.398842,
       31.360858
      ],
      [
       34.397806,
       31.360082
      ],
      [
       34.396659,
       31.359428
      ],
      [
       34.395423,
       31.358907
      ],
      [
       34.394117,
       31.358529
      ],
      [
       34.392765,
       31.358299
      ],
      [
       34.391389,
       31.358222
      ],
      [
       34.390013,
       31.358299
      ],
      [
       34.388661,
       31.358529
      ],
      [
       34.387355,
       31.358907
      ],
      [
       34.386119,
       31.359428
      ],
      [
       34.384972,
       31.360082
      ],
      [
       34.383936,
       31.360858
      ],
      [
       34.383027,
       31.361743
      ],
      [
       34.382261,
       31.362722
      ],
      [
       34.381651,
       31.363778
      ],
      [
       34.381208,
       31.364893
      ],
      [
       34.380939,
       31.366047
      ],
      [
       34.380848,
       31.367222
      ],
      [
       34.380939,
       31.368397
      ],
      [
       34.381208,
       31.369551
      ],
      [
       34.381651,
       31.370666
      ],
      [
       34.382261,
       31.371722
      ],
      [
       34.383027,
       31.372701
      ],
      [
       34.383936,
       31.373586
      ],
      [
       34.384972,
       31.374362
      ],
      [
       34.386119,
       31.375016
      ],
      [
       34.387355,
       31.375537
      ],
      [
       34.388661,
       31.375915
      ],
      [
       34.390013,
       31.376145
      ],
      [
       34.391389,
       31.376222
      ]
     ]
    ]
   },
   "properties": {
    "id": "LLP3007",
    "name": "בלון מעוגן רצועת עזה",
    "type": "מכשול קבוע",
    "lower_limit": "GND",
    "upper_limit": "2500",
    "radius_nm": 0.54,
    "source": "פמ\"ת א-17, נספח ד'"
   }
  }
 ]
}
